STARLINK-1873
1 17158C 20088AN  21326.10698573 -.00022362  00000-0 -14982-2 0  3263
2 17158  53.0529 133.2463 0001565  81.2187 309.1104 15.06422098    13
